CCSDS_OMM_VERS = 2.0
CREATION_DATE  = 
ORIGINATOR     = 

OBJECT_NAME    = ALOS (DAICHI)
OBJECT_ID      = 2006-002A
CENTER_NAME    = EARTH
REF_FRAME      = TEME
TIME_SYSTEM    = UTC
MEAN_ELEMENT_THEORY = SGP/SGP4

EPOCH          = 2025-12-17T17:37:14.152512
MEAN_MOTION    = 14.69501788
ECCENTRICITY   = .00013612
INCLINATION    = 98.1098
RA_OF_ASC_NODE = 303.1864
ARG_OF_PERICENTER = 113.5739
MEAN_ANOMALY   = 246.5610

EPHEMERIS_TYPE = 0
CLASSIFICATION_TYPE = U
NORAD_CAT_ID   = 28931
ELEMENT_SET_NO = 999
REV_AT_EPOCH   = 6144
BSTAR          = .19545051E-3
MEAN_MOTION_DOT = .111E-4
MEAN_MOTION_DDOT = 0

CCSDS_OMM_VERS = 2.0
CREATION_DATE  = 
ORIGINATOR     = 

OBJECT_NAME    = H-2A R/B
OBJECT_ID      = 2006-002B
CENTER_NAME    = EARTH
REF_FRAME      = TEME
TIME_SYSTEM    = UTC
MEAN_ELEMENT_THEORY = SGP/SGP4

EPOCH          = 2025-12-28T15:21:15.292512
MEAN_MOTION    = 15.14900394
ECCENTRICITY   = .00549463
INCLINATION    = 98.2320
RA_OF_ASC_NODE = 138.6909
ARG_OF_PERICENTER = 122.6564
MEAN_ANOMALY   = 237.9984

EPHEMERIS_TYPE = 0
CLASSIFICATION_TYPE = U
NORAD_CAT_ID   = 28932
ELEMENT_SET_NO = 999
REV_AT_EPOCH   = 8367
BSTAR          = .66275998E-3
MEAN_MOTION_DOT = .1275E-3
MEAN_MOTION_DDOT = 0

CCSDS_OMM_VERS = 2.0
CREATION_DATE  = 
ORIGINATOR     = 

OBJECT_NAME    = RESURS-DK 1
OBJECT_ID      = 2006-021A
CENTER_NAME    = EARTH
REF_FRAME      = TEME
TIME_SYSTEM    = UTC
MEAN_ELEMENT_THEORY = SGP/SGP4

EPOCH          = 2025-12-28T12:10:33.807936
MEAN_MOTION    = 15.12254208
ECCENTRICITY   = .00070112
INCLINATION    = 69.9342
RA_OF_ASC_NODE = 61.0864
ARG_OF_PERICENTER = 245.2412
MEAN_ANOMALY   = 114.8024

EPHEMERIS_TYPE = 0
CLASSIFICATION_TYPE = U
NORAD_CAT_ID   = 29228
ELEMENT_SET_NO = 999
REV_AT_EPOCH   = 7676
BSTAR          = .23084774E-3
MEAN_MOTION_DOT = .3897E-4
MEAN_MOTION_DDOT = 0

CCSDS_OMM_VERS = 2.0
CREATION_DATE  = 
ORIGINATOR     = 

OBJECT_NAME    = CZ-4B R/B
OBJECT_ID      = 2006-046C
CENTER_NAME    = EARTH
REF_FRAME      = TEME
TIME_SYSTEM    = UTC
MEAN_ELEMENT_THEORY = SGP/SGP4

EPOCH          = 2025-12-28T13:04:37.651008
MEAN_MOTION    = 15.16033454
ECCENTRICITY   = .00345694
INCLINATION    = 97.5718
RA_OF_ASC_NODE = 42.6401
ARG_OF_PERICENTER = 151.9040
MEAN_ANOMALY   = 208.4068

EPHEMERIS_TYPE = 0
CLASSIFICATION_TYPE = U
NORAD_CAT_ID   = 29507
ELEMENT_SET_NO = 999
REV_AT_EPOCH   = 4926
BSTAR          = .34105447E-3
MEAN_MOTION_DOT = .6588E-4
MEAN_MOTION_DDOT = 0

CCSDS_OMM_VERS = 2.0
CREATION_DATE  = 
ORIGINATOR     = 

OBJECT_NAME    = CZ-2C R/B
OBJECT_ID      = 2007-010B
CENTER_NAME    = EARTH
REF_FRAME      = TEME
TIME_SYSTEM    = UTC
MEAN_ELEMENT_THEORY = SGP/SGP4

EPOCH          = 2025-12-28T06:55:44.202720
MEAN_MOTION    = 14.20216428
ECCENTRICITY   = .0059748
INCLINATION    = 98.3974
RA_OF_ASC_NODE = 114.1571
ARG_OF_PERICENTER = 141.0616
MEAN_ANOMALY   = 219.4888

EPHEMERIS_TYPE = 0
CLASSIFICATION_TYPE = U
NORAD_CAT_ID   = 31114
ELEMENT_SET_NO = 999
REV_AT_EPOCH   = 96958
BSTAR          = .11544E-3
MEAN_MOTION_DOT = .21E-5
MEAN_MOTION_DDOT = 0

CCSDS_OMM_VERS = 2.0
CREATION_DATE  = 
ORIGINATOR     = 

OBJECT_NAME    = COSMO-SKYMED 1
OBJECT_ID      = 2007-023A
CENTER_NAME    = EARTH
REF_FRAME      = TEME
TIME_SYSTEM    = UTC
MEAN_ELEMENT_THEORY = SGP/SGP4

EPOCH          = 2025-12-28T13:48:16.072128
MEAN_MOTION    = 14.95885910
ECCENTRICITY   = .000103
INCLINATION    = 97.8836
RA_OF_ASC_NODE = 188.0791
ARG_OF_PERICENTER = 78.7700
MEAN_ANOMALY   = 281.3636

EPHEMERIS_TYPE = 0
CLASSIFICATION_TYPE = U
NORAD_CAT_ID   = 31598
ELEMENT_SET_NO = 999
REV_AT_EPOCH   = 427
BSTAR          = .44690774E-3
MEAN_MOTION_DOT = .494E-4
MEAN_MOTION_DDOT = 0

CCSDS_OMM_VERS = 2.0
CREATION_DATE  = 
ORIGINATOR     = 

OBJECT_NAME    = COSMOS 2428
OBJECT_ID      = 2007-029A
CENTER_NAME    = EARTH
REF_FRAME      = TEME
TIME_SYSTEM    = UTC
MEAN_ELEMENT_THEORY = SGP/SGP4

EPOCH          = 2025-12-28T09:13:54.555744
MEAN_MOTION    = 14.12896960
ECCENTRICITY   = .00045674
INCLINATION    = 70.9371
RA_OF_ASC_NODE = 353.0310
ARG_OF_PERICENTER = 1.8841
MEAN_ANOMALY   = 358.2297

EPHEMERIS_TYPE = 0
CLASSIFICATION_TYPE = U
NORAD_CAT_ID   = 31792
ELEMENT_SET_NO = 999
REV_AT_EPOCH   = 95402
BSTAR          = .17992107E-3
MEAN_MOTION_DOT = .287E-5
MEAN_MOTION_DDOT = 0

CCSDS_OMM_VERS = 2.0
CREATION_DATE  = 
ORIGINATOR     = 

OBJECT_NAME    = SL-16 R/B
OBJECT_ID      = 2007-029B
CENTER_NAME    = EARTH
REF_FRAME      = TEME
TIME_SYSTEM    = UTC
MEAN_ELEMENT_THEORY = SGP/SGP4

EPOCH          = 2025-12-28T16:08:38.173920
MEAN_MOTION    = 14.14821286
ECCENTRICITY   = .00019168
INCLINATION    = 70.9769
RA_OF_ASC_NODE = 321.6647
ARG_OF_PERICENTER = 267.9908
MEAN_ANOMALY   = 265.3720

EPHEMERIS_TYPE = 0
CLASSIFICATION_TYPE = U
NORAD_CAT_ID   = 31793
ELEMENT_SET_NO = 999
REV_AT_EPOCH   = 95532
BSTAR          = .17217336E-3
MEAN_MOTION_DOT = .284E-5
MEAN_MOTION_DDOT = 0

CCSDS_OMM_VERS = 2.0
CREATION_DATE  = 
ORIGINATOR     = 

OBJECT_NAME    = KORONAS-FOTON
OBJECT_ID      = 2009-003A
CENTER_NAME    = EARTH
REF_FRAME      = TEME
TIME_SYSTEM    = UTC
MEAN_ELEMENT_THEORY = SGP/SGP4

EPOCH          = 2025-12-28T00:15:29.225952
MEAN_MOTION    = 15.41486416
ECCENTRICITY   = .00131434
INCLINATION    = 82.4309
RA_OF_ASC_NODE = 350.2776
ARG_OF_PERICENTER = 61.1160
MEAN_ANOMALY   = 299.1403

EPHEMERIS_TYPE = 0
CLASSIFICATION_TYPE = U
NORAD_CAT_ID   = 33504
ELEMENT_SET_NO = 999
REV_AT_EPOCH   = 93469
BSTAR          = .24420601E-3
MEAN_MOTION_DOT = .10299E-3
MEAN_MOTION_DDOT = 0

CCSDS_OMM_VERS = 2.0
CREATION_DATE  = 
ORIGINATOR     = 

OBJECT_NAME    = CZ-2C R/B
OBJECT_ID      = 2011-030B
CENTER_NAME    = EARTH
REF_FRAME      = TEME
TIME_SYSTEM    = UTC
MEAN_ELEMENT_THEORY = SGP/SGP4

EPOCH          = 2025-12-28T15:04:24.936096
MEAN_MOTION    = 14.80951675
ECCENTRICITY   = .00517163
INCLINATION    = 97.8435
RA_OF_ASC_NODE = 316.3852
ARG_OF_PERICENTER = 220.5150
MEAN_ANOMALY   = 312.8246

EPHEMERIS_TYPE = 0
CLASSIFICATION_TYPE = U
NORAD_CAT_ID   = 37731
ELEMENT_SET_NO = 999
REV_AT_EPOCH   = 77957
BSTAR          = .22574452E-3
MEAN_MOTION_DOT = .1732E-4
MEAN_MOTION_DDOT = 0

CCSDS_OMM_VERS = 2.0
CREATION_DATE  = 
ORIGINATOR     = 

OBJECT_NAME    = H-2A R/B
OBJECT_ID      = 2012-025E
CENTER_NAME    = EARTH
REF_FRAME      = TEME
TIME_SYSTEM    = UTC
MEAN_ELEMENT_THEORY = SGP/SGP4

EPOCH          = 2025-12-28T15:23:46.897728
MEAN_MOTION    = 14.94551839
ECCENTRICITY   = .00447917
INCLINATION    = 98.4621
RA_OF_ASC_NODE = 319.1008
ARG_OF_PERICENTER = 183.0076
MEAN_ANOMALY   = 177.0880

EPHEMERIS_TYPE = 0
CLASSIFICATION_TYPE = U
NORAD_CAT_ID   = 38341
ELEMENT_SET_NO = 999
REV_AT_EPOCH   = 73760
BSTAR          = .42004448E-3
MEAN_MOTION_DOT = .4563E-4
MEAN_MOTION_DDOT = 0

CCSDS_OMM_VERS = 2.0
CREATION_DATE  = 
ORIGINATOR     = 

OBJECT_NAME    = SHIJIAN-16 (SJ-16)
OBJECT_ID      = 2013-057A
CENTER_NAME    = EARTH
REF_FRAME      = TEME
TIME_SYSTEM    = UTC
MEAN_ELEMENT_THEORY = SGP/SGP4

EPOCH          = 2025-12-28T15:04:38.208000
MEAN_MOTION    = 14.92043201
ECCENTRICITY   = .00179537
INCLINATION    = 74.9736
RA_OF_ASC_NODE = 319.5896
ARG_OF_PERICENTER = 283.2187
MEAN_ANOMALY   = 76.6998

EPHEMERIS_TYPE = 0
CLASSIFICATION_TYPE = U
NORAD_CAT_ID   = 39358
ELEMENT_SET_NO = 999
REV_AT_EPOCH   = 66090
BSTAR          = .57162932E-3
MEAN_MOTION_DOT = .5794E-4
MEAN_MOTION_DDOT = 0

