ALOS (DAICHI)           
1 28931U 06002A   25351.73419158  .00001110  00000+0  19545-3 0  9994
2 28931  98.1098 303.1864 0001361 113.5739 246.5610 14.69501788 61443
H-2A R/B                
1 28932U 06002B   25362.63976033  .00012750  00000+0  66276-3 0  9991
2 28932  98.2320 138.6909 0054946 122.6564 237.9984 15.14900394 83672
RESURS-DK 1             
1 29228U 06021A   25362.50733574  .00003897  00000+0  23085-3 0  9991
2 29228  69.9342  61.0864 0007011 245.2412 114.8024 15.12254208 76768
CZ-4B R/B               
1 29507U 06046C   25362.54488022  .00006588  00000+0  34105-3 0  9992
2 29507  97.5718  42.6401 0034569 151.9040 208.4068 15.16033454 49267
CZ-2C R/B               
1 31114U 07010B   25362.28870605  .00000210  00000+0  11544-3 0  9992
2 31114  98.3974 114.1571 0059748 141.0616 219.4888 14.20216428969581
COSMO-SKYMED 1          
1 31598U 07023A   25362.57518602  .00004940  00000+0  44691-3 0  9993
2 31598  97.8836 188.0791 0001030  78.7700 281.3636 14.95885910  4278
COSMOS 2428             
1 31792U 07029A   25362.38465921  .00000287  00000+0  17992-3 0  9993
2 31792  70.9371 353.0310 0004567   1.8841 358.2297 14.12896960954022
SL-16 R/B               
1 31793U 07029B   25362.67266405  .00000284  00000+0  17217-3 0  9999
2 31793  70.9769 321.6647 0001916 267.9908 265.3720 14.14821286955326
KORONAS-FOTON           
1 33504U 09003A   25362.01075493  .00010299  00000+0  24421-3 0  9990
2 33504  82.4309 350.2776 0013143  61.1160 299.1403 15.41486416934699
CZ-2C R/B               
1 37731U 11030B   25362.62806639  .00001732  00000+0  22574-3 0  9999
2 37731  97.8435 316.3852 0051716 220.5150 312.8246 14.80951675779579
H-2A R/B                
1 38341U 12025E   25362.64151502  .00004563  00000+0  42004-3 0  9991
2 38341  98.4621 319.1008 0044791 183.0076 177.0880 14.94551839737606
SHIJIAN-16 (SJ-16)      
1 39358U 13057A   25362.62822000  .00005794  00000+0  57163-3 0  9991
2 39358  74.9736 319.5896 0017953 283.2187  76.6998 14.92043201660905
